{"type": "FeatureCollection", "features": [ {"type": "Feature", "properties": {"norad_id": 29973, "name": "FENGYUN 1C DEB", "group": "fengyun-1c-debris", "lat": 78.37248088757914, "lon": -62.78228964782459, "alt_km": 848.2745604823094, "timestamp": "2025-12-11T20:41:15.353839+00:00", "meta": {"OBJECT_NAME": "FENGYUN 1C DEB", "OBJECT_ID": "1999-025KX", "EPOCH": "2025-12-11T12:22:35.355936", "MEAN_MOTION": 14.06533437, "ECCENTRICITY": 0.00592632, "INCLINATION": 98.8425, "RA_OF_ASC_NODE": 346.0359, "ARG_OF_PERICENTER": 152.3909, "MEAN_ANOMALY": 338.1744, "EPHEMERIS_TYPE": 0, "CLASSIFICATION_TYPE": "U", "NORAD_CAT_ID": 29973, "ELEMENT_SET_NO": 999, "REV_AT_EPOCH": 96701, "BSTAR": 0.00095093427, "MEAN_MOTION_DOT": 1.557e-05, "MEAN_MOTION_DDOT": 0}, "tle": {"line1": "1 29973U 99025KX  25345.51568699  .00001557  00000+0  95093-3 0  9999", "line2": "2 29973  98.8425 346.0359 0059263 152.3909 338.1744 14.06533437967011"}}, "geometry": {"type": "Point", "coordinates": [-62.78228964782459, 78.37248088757914]}}, {"type": "Feature", "properties": {"norad_id": 29974, "name": "FENGYUN 1C DEB", "group": "fengyun-1c-debris", "lat": -79.54092197988055, "lon": 128.0555703217522, "alt_km": 883.3902197806065, "timestamp": "2025-12-11T20:41:15.353849+00:00", "meta": {"OBJECT_NAME": "FENGYUN 1C DEB", "OBJECT_ID": "1999-025KY", "EPOCH": "2025-12-11T04:23:57.107904", "MEAN_MOTION": 14.1483664, "ECCENTRICITY": 0.00468506, "INCLINATION": 98.8935, "RA_OF_ASC_NODE": 69.3626, "ARG_OF_PERICENTER": 86.5671, "MEAN_ANOMALY": 334.1727, "EPHEMERIS_TYPE": 0, "CLASSIFICATION_TYPE": "U", "NORAD_CAT_ID": 29974, "ELEMENT_SET_NO": 999, "REV_AT_EPOCH": 96903, "BSTAR": 0.0017898546, "MEAN_MOTION_DOT": 3.448e-05, "MEAN_MOTION_DDOT": 0}, "tle": {"line1": "1 29974U 99025KY  25345.18329986  .00003448  00000+0  17899-2 0  9995", "line2": "2 29974  98.8935  69.3626 0046850  86.5671 334.1727 14.14836640969034"}}, "geometry": {"type": "Point", "coordinates": [128.0555703217522, -79.54092197988055]}}, {"type": "Feature", "properties": {"norad_id": 29975, "name": "FENGYUN 1C DEB", "group": "fengyun-1c-debris", "lat": -35.25135540810005, "lon": 33.59176463616711, "alt_km": 855.1065547669978, "timestamp": "2025-12-11T20:41:15.353859+00:00", "meta": {"OBJECT_NAME": "FENGYUN 1C DEB", "OBJECT_ID": "1999-025KZ", "EPOCH": "2025-12-11T14:46:26.619168", "MEAN_MOTION": 13.98025428, "ECCENTRICITY": 0.01136319, "INCLINATION": 99.3398, "RA_OF_ASC_NODE": 26.6617, "ARG_OF_PERICENTER": 16.7945, "MEAN_ANOMALY": 149.1061, "EPHEMERIS_TYPE": 0, "CLASSIFICATION_TYPE": "U", "NORAD_CAT_ID": 29975, "ELEMENT_SET_NO": 999, "REV_AT_EPOCH": 96421, "BSTAR": 8.0694438e-05, "MEAN_MOTION_DOT": 7.5e-07, "MEAN_MOTION_DDOT": 0}, "tle": {"line1": "1 29975U 99025KZ  25345.61558587  .00000075  00000+0  80694-4 0  9993", "line2": "2 29975  99.3398  26.6617 0113631  16.7945 149.1061 13.98025428964216"}}, "geometry": {"type": "Point", "coordinates": [33.59176463616711, -35.25135540810005]}}, {"type": "Feature", "properties": {"norad_id": 29976, "name": "FENGYUN 1C DEB", "group": "fengyun-1c-debris", "lat": 40.65385852083976, "lon": 170.9434468945689, "alt_km": 936.9302813588629, "timestamp": "2025-12-11T20:41:15.353869+00:00", "meta": {"OBJECT_NAME": "FENGYUN 1C DEB", "OBJECT_ID": "1999-025LA", "EPOCH": "2025-12-11T12:09:56.515968", "MEAN_MOTION": 13.98106642, "ECCENTRICITY": 0.02674968, "INCLINATION": 98.918, "RA_OF_ASC_NODE": 342.8489, "ARG_OF_PERICENTER": 242.945, "MEAN_ANOMALY": 272.5131, "EPHEMERIS_TYPE": 0, "CLASSIFICATION_TYPE": "U", "NORAD_CAT_ID": 29976, "ELEMENT_SET_NO": 999, "REV_AT_EPOCH": 96319, "BSTAR": 0.00036565337, "MEAN_MOTION_DOT": 6.6e-06, "MEAN_MOTION_DDOT": 0}, "tle": {"line1": "1 29976U 99025LA  25345.50690412  .00000660  00000+0  36565-3 0  9993", "line2": "2 29976  98.9180 342.8489 0267496 242.9450 272.5131 13.98106642963197"}}, "geometry": {"type": "Point", "coordinates": [170.9434468945689, 40.65385852083976]}}, {"type": "Feature", "properties": {"norad_id": 29977, "name": "FENGYUN 1C DEB", "group": "fengyun-1c-debris", "lat": 51.00131434887511, "lon": -162.53505943844976, "alt_km": 953.84120303911, "timestamp": "2025-12-11T20:41:15.353879+00:00", "meta": {"OBJECT_NAME": "FENGYUN 1C DEB", "OBJECT_ID": "1999-025LB", "EPOCH": "2025-12-11T13:44:39.060384", "MEAN_MOTION": 14.05077374, "ECCENTRICITY": 0.01284537, "INCLINATION": 98.3966, "RA_OF_ASC_NODE": 207.7067, "ARG_OF_PERICENTER": 260.2779, "MEAN_ANOMALY": 128.2899, "EPHEMERIS_TYPE": 0, "CLASSIFICATION_TYPE": "U", "NORAD_CAT_ID": 29977, "ELEMENT_SET_NO": 999, "REV_AT_EPOCH": 96344, "BSTAR": 0.0019924299, "MEAN_MOTION_DOT": 3.419e-05, "MEAN_MOTION_DDOT": 0}, "tle": {"line1": "1 29977U 99025LB  25345.57267431  .00003419  00000+0  19924-2 0  9996", "line2": "2 29977  98.3966 207.7067 0128453 260.2779 128.2899 14.05077374963445"}}, "geometry": {"type": "Point", "coordinates": [-162.53505943844976, 51.00131434887511]}}, {"type": "Feature", "properties": {"norad_id": 29978, "name": "FENGYUN 1C DEB", "group": "fengyun-1c-debris", "lat": 15.13414875951986, "lon": -141.2026290574136, "alt_km": 927.3875610692257, "timestamp": "2025-12-11T20:41:15.353890+00:00", "meta": {"OBJECT_NAME": "FENGYUN 1C DEB", "OBJECT_ID": "1999-025LC", "EPOCH": "2025-12-11T02:50:15.607680", "MEAN_MOTION": 13.95906593, "ECCENTRICITY": 0.00767263, "INCLINATION": 99.0616, "RA_OF_ASC_NODE": 35.5921, "ARG_OF_PERICENTER": 56.6754, "MEAN_ANOMALY": 331.569, "EPHEMERIS_TYPE": 0, "CLASSIFICATION_TYPE": "U", "NORAD_CAT_ID": 29978, "ELEMENT_SET_NO": 999, "REV_AT_EPOCH": 96294, "BSTAR": -9.5711e-07, "MEAN_MOTION_DOT": -4.5e-07, "MEAN_MOTION_DDOT": 0}, "tle": {"line1": "1 29978U 99025LC  25345.11823620 -.00000045  00000+0 -95711-6 0  9991", "line2": "2 29978  99.0616  35.5921 0076726  56.6754 331.5690 13.95906593962941"}}, "geometry": {"type": "Point", "coordinates": [-141.2026290574136, 15.13414875951986]}}, {"type": "Feature", "properties": {"norad_id": 29979, "name": "FENGYUN 1C DEB", "group": "fengyun-1c-debris", "lat": 79.19731912561707, "lon": -41.390784351871794, "alt_km": 786.7740957521946, "timestamp": "2025-12-11T20:41:15.353900+00:00", "meta": {"OBJECT_NAME": "FENGYUN 1C DEB", "OBJECT_ID": "1999-025LD", "EPOCH": "2025-12-11T07:06:05.079168", "MEAN_MOTION": 14.25959173, "ECCENTRICITY": 0.01075264, "INCLINATION": 98.3705, "RA_OF_ASC_NODE": 8.5696, "ARG_OF_PERICENTER": 167.1619, "MEAN_ANOMALY": 252.8825, "EPHEMERIS_TYPE": 0, "CLASSIFICATION_TYPE": "U", "NORAD_CAT_ID": 29979, "ELEMENT_SET_NO": 999, "REV_AT_EPOCH": 98053, "BSTAR": 0.00067070934, "MEAN_MOTION_DOT": 1.659e-05, "MEAN_MOTION_DDOT": 0}, "tle": {"line1": "1 29979U 99025LD  25345.29589212  .00001659  00000+0  67071-3 0  9992", "line2": "2 29979  98.3705   8.5696 0107526 167.1619 252.8825 14.25959173980539"}}, "geometry": {"type": "Point", "coordinates": [-41.390784351871794, 79.19731912561707]}}, {"type": "Feature", "properties": {"norad_id": 29980, "name": "FENGYUN 1C DEB", "group": "fengyun-1c-debris", "lat": 73.36585824361303, "lon": 124.82566681873708, "alt_km": 927.6656687529703, "timestamp": "2025-12-11T20:41:15.353910+00:00", "meta": {"OBJECT_NAME": "FENGYUN 1C DEB", "OBJECT_ID": "1999-025LE", "EPOCH": "2025-12-11T10:23:56.839200", "MEAN_MOTION": 14.06313576, "ECCENTRICITY": 0.00868593, "INCLINATION": 98.5513, "RA_OF_ASC_NODE": 154.6601, "ARG_OF_PERICENTER": 251.5536, "MEAN_ANOMALY": 175.1368, "EPHEMERIS_TYPE": 0, "CLASSIFICATION_TYPE": "U", "NORAD_CAT_ID": 29980, "ELEMENT_SET_NO": 999, "REV_AT_EPOCH": 96974, "BSTAR": 0.00033602581, "MEAN_MOTION_DOT": 5.32e-06, "MEAN_MOTION_DDOT": 0}, "tle": {"line1": "1 29980U 99025LE  25345.43329675  .00000532  00000+0  33603-3 0  9998", "line2": "2 29980  98.5513 154.6601 0086859 251.5536 175.1368 14.06313576969749"}}, "geometry": {"type": "Point", "coordinates": [124.82566681873708, 73.36585824361303]}}, {"type": "Feature", "properties": {"norad_id": 29982, "name": "FENGYUN 1C DEB", "group": "fengyun-1c-debris", "lat": -68.07508738151954, "lon": -168.68617782490972, "alt_km": 592.3328026343597, "timestamp": "2025-12-11T20:41:15.353920+00:00", "meta": {"OBJECT_NAME": "FENGYUN 1C DEB", "OBJECT_ID": "1999-025LG", "EPOCH": "2025-12-11T11:25:24.958848", "MEAN_MOTION": 14.6686662, "ECCENTRICITY": 0.01219342, "INCLINATION": 99.4019, "RA_OF_ASC_NODE": 166.5627, "ARG_OF_PERICENTER": 292.1738, "MEAN_ANOMALY": 120.604, "EPHEMERIS_TYPE": 0, "CLASSIFICATION_TYPE": "U", "NORAD_CAT_ID": 29982, "ELEMENT_SET_NO": 999, "REV_AT_EPOCH": 265, "BSTAR": 0.0012113467, "MEAN_MOTION_DOT": 7.501e-05, "MEAN_MOTION_DDOT": 0}, "tle": {"line1": "1 29982U 99025LG  25345.47598332  .00007501  00000+0  12113-2 0  9997", "line2": "2 29982  99.4019 166.5627 0121934 292.1738 120.6040 14.66866620  2650"}}, "geometry": {"type": "Point", "coordinates": [-168.68617782490972, -68.07508738151954]}}, {"type": "Feature", "properties": {"norad_id": 29985, "name": "FENGYUN 1C DEB", "group": "fengyun-1c-debris", "lat": 2.5409965379388515, "lon": 0.5601277564768176, "alt_km": 878.6097355514721, "timestamp": "2025-12-11T20:41:15.353930+00:00", "meta": {"OBJECT_NAME": "FENGYUN 1C DEB", "OBJECT_ID": "1999-025LK", "EPOCH": "2025-12-11T12:56:09.211200", "MEAN_MOTION": 14.10323549, "ECCENTRICITY": 0.00280787, "INCLINATION": 98.7107, "RA_OF_ASC_NODE": 0.6371, "ARG_OF_PERICENTER": 212.4816, "MEAN_ANOMALY": 311.1032, "EPHEMERIS_TYPE": 0, "CLASSIFICATION_TYPE": "U", "NORAD_CAT_ID": 29985, "ELEMENT_SET_NO": 999, "REV_AT_EPOCH": 97331, "BSTAR": 4.3884246e-05, "MEAN_MOTION_DOT": 3.5e-07, "MEAN_MOTION_DDOT": 0}, "tle": {"line1": "1 29985U 99025LK  25345.53899550  .00000035  00000+0  43884-4 0  9999", "line2": "2 29985  98.7107   0.6371 0028078 212.4816 311.1032 14.10323549973319"}}, "geometry": {"type": "Point", "coordinates": [0.5601277564768176, 2.5409965379388515]}}]}